OBJECT_NAME,OBJECT_ID,EPOCH,MEAN_MOTION,ECCENTRICITY,INCLINATION,RA_OF_ASC_NODE,ARG_OF_PERICENTER,MEAN_ANOMALY,EPHEMERIS_TYPE,CLASSIFICATION_TYPE,NORAD_CAT_ID,ELEMENT_SET_NO,REV_AT_EPOCH,BSTAR,MEAN_MOTION_DOT,MEAN_MOTION_DDOT
ONEWEB-0597,2022-166X,2026-06-03T06:48:42.972480,13.21825651,.00022069,87.9269,246.7558,101.9364,258.2018,0,U,54663,999,16970,.80621421E-4,.46E-6,0
ONEWEB-0600,2022-166Y,2026-06-03T06:22:02.596512,13.21827862,.00019054,87.9255,246.7495,97.7006,262.4345,0,U,54664,999,16967,.69546306E-4,.42E-6,0
ONEWEB-0601,2022-166Z,2026-06-03T15:14:57.117984,13.21824169,.00021651,87.9255,246.6910,94.8350,265.3031,0,U,54665,999,16991,-.16798981E-3,-.56E-6,0
ONEWEB-0602,2022-166AA,2026-06-03T07:09:17.548992,13.21825212,.00018816,87.9258,246.7646,94.4677,265.6672,0,U,54666,999,16971,.78320679E-4,.45E-6,0
ONEWEB-0603,2022-166AB,2026-06-03T07:17:47.525856,13.21813952,.00020315,87.9268,246.7191,99.4752,260.6612,0,U,54667,999,16964,.57252812E-2,.2378E-4,0
ONEWEB-0604,2022-166AC,2026-06-03T07:00:49.618944,13.21826652,.00019506,87.9267,246.7368,102.2293,257.9060,0,U,54668,999,16960,.48082667E-4,.33E-6,0
ONEWEB-0605,2022-166AD,2026-06-03T06:51:08.435520,13.21824522,.00026498,87.9259,246.7530,97.5133,262.6302,0,U,54669,999,16967,.23902479E-3,.112E-5,0
ONEWEB-0606,2022-166AE,2026-06-03T07:22:37.733088,13.21826193,.00019428,87.9259,246.7613,104.5254,255.6096,0,U,54670,999,16973,.12718593E-3,.66E-6,0
ONEWEB-0607,2022-166AF,2026-06-03T06:34:08.893056,13.21828047,.00020177,87.9264,246.7375,95.9162,264.2202,0,U,54671,999,16970,.21144688E-3,.1E-5,0
ONEWEB-0608,2022-166AG,2026-06-03T06:43:52.144896,13.21826954,.00025026,87.9271,246.7328,95.8878,264.2542,0,U,54672,999,16971,.11021991E-3,.59E-6,0
ONEWEB-0610,2022-166AH,2026-06-03T15:19:47.490240,13.21827712,.0002388,87.9257,246.6764,86.2508,273.8899,0,U,54673,999,16966,-.20617114E-3,-.72E-6,0
ONEWEB-0611,2022-166AJ,2026-06-03T15:10:06.463200,13.21828213,.00019798,87.9255,246.6741,103.9759,256.1595,0,U,54674,999,16965,.29708977E-3,.136E-5,0
ONEWEB-0612,2022-166AK,2026-06-03T06:24:28.163232,13.21824388,.00021534,87.9266,246.7404,97.5243,262.6136,0,U,54675,999,16959,.10943731E-3,.58E-6,0
ONEWEB-0615,2022-166AL,2026-06-03T15:00:26.515296,13.21825594,.00017239,87.9258,246.6853,101.3617,258.7711,0,U,54676,999,16965,-.10716125E-3,-.31E-6,0
ONEWEB-0655,2022-166AM,2026-06-03T07:10:31.165248,13.21825554,.00019178,87.9257,246.7519,92.5920,267.5434,0,U,54677,999,16960,.37725181E-4,.29E-6,0
ONEWEB-0659,2022-166AN,2026-06-03T14:50:42.991296,13.21828332,.00020247,87.9259,246.6882,102.2588,257.8773,0,U,54678,999,16973,.10573958E-3,.57E-6,0
ONEWEB-0685,2022-166AP,2026-06-03T07:35:05.817984,13.21819777,.00020541,87.9254,246.7408,92.8094,267.3275,0,U,54679,999,16958,-.8997028E-5,.9E-7,0
ONEWEB-0712,2022-166AQ,2026-06-03T14:36:19.133856,13.16593689,.00017638,87.9107,231.4700,86.2258,273.9075,0,U,54680,999,17027,.7593962E-5,.16E-6,0
ONEWEB-0714,2022-166AR,2026-06-03T14:58:00.973632,13.21820229,.00019182,87.9260,246.6762,94.1489,265.9864,0,U,54681,999,16974,-.14223873E-2,-.574E-5,0
ONEWEB-0532,2023-004A,2026-06-03T14:13:23.680416,13.17647893,.00019465,87.9162,8.5715,82.8608,277.2745,0,U,55140,999,16579,.26061324E-3,.114E-5,0
ONEWEB-0533,2023-004B,2026-06-03T13:58:25.624992,13.12443368,.00020329,87.8960,353.3796,82.5239,277.6121,0,U,55141,999,16627,-.71987305E-3,-.246E-5,0
ONEWEB-0541,2023-004C,2026-06-03T14:26:07.676736,13.11420220,.00018193,87.8917,23.7606,97.4855,262.6480,0,U,55142,999,16416,-.38683598E-3,-.124E-5,0
ONEWEB-0543,2023-004D,2026-06-03T13:58:02.392032,13.18688870,.00015814,87.9161,338.1787,82.5042,277.6270,0,U,55143,999,16790,-.10823142E-3,-.3E-6,0
ONEWEB-0544,2023-004E,2026-06-03T13:48:20.141568,13.18685689,.00015604,87.9159,338.1798,92.4762,267.6549,0,U,55144,999,16790,-.14165571E-3,-.43E-6,0
ONEWEB-0560,2023-004F,2026-06-03T13:38:37.746816,13.18685874,.00013115,87.9167,338.1709,85.5007,274.6275,0,U,55145,999,16791,.43588691E-3,.185E-5,0
ONEWEB-0565,2023-004G,2026-06-03T13:28:54.168384,13.18686832,.00017791,87.9148,338.2004,104.3656,255.7673,0,U,55146,999,16790,.19353758E-3,.89E-6,0
ONEWEB-0567,2023-004H,2026-06-03T13:19:12.084672,13.18685341,.0001368,87.9171,338.1870,88.5037,271.6252,0,U,55147,999,16790,-.12077308E-3,-.35E-6,0
ONEWEB-0569,2023-004J,2026-06-03T10:45:51.066144,13.13469394,.00010279,87.8953,322.9553,113.2210,246.9028,0,U,55148,999,16837,.74763535E-3,.286E-5,0
ONEWEB-0570,2023-004K,2026-06-03T13:07:02.409888,13.18688831,.00021172,87.9158,338.1850,96.5523,263.5850,0,U,55149,999,16789,.16422833E-3,.78E-6,0
ONEWEB-0571,2023-004L,2026-06-03T12:57:19.780992,13.18688225,.00015269,87.9172,338.1869,134.1576,225.9682,0,U,55150,999,16790,.38972953E-4,.28E-6,0
